STARLINK-31651          
1 59860U 24098C   25151.46450978 -.00001345  00000+0 -39397-4 0  9997
2 59860  43.0041  71.8392 0000785 258.6311 101.4452 15.27569172 57989
STARLINK-31584          
1 59862U 24098E   25151.19267396 -.00010796  00000+0 -38255-3 0  9990
2 59862  43.0015  73.2424 0001903 264.8322  95.2312 15.27646578 57844
STARLINK-31950          
1 59863U 24098F   25151.47221578  .00002875  00000+0  11403-3 0  9997
2 59863  43.0024  71.8945 0000436 297.6743  62.4065 15.27558875 58033
STARLINK-31931          
1 59864U 24098G   25151.49019977 -.00001148  00000+0 -32190-4 0  9999
2 59864  43.0023  72.0342 0001914 270.9793  89.0839 15.27570900 58035
STARLINK-31938          
1 59865U 24098H   25151.18239153  .00000594  00000+0  31105-4 0  9993
2 59865  43.0022  73.1584 0001136 259.9960 100.0763 15.27576559 58647
STARLINK-31941          
1 59866U 24098J   25151.45914617  .00000676  00000+0  34115-4 0  9994
2 59866  43.0058  54.1282 0001501 236.4445 123.6263 15.27572292 58258
STARLINK-31952          
1 59867U 24098K   25151.47606619 -.00000831  00000+0 -20697-4 0  9992
2 59867  43.0015  71.9298 0001152 265.8135  94.2585 15.27574654 58030
STARLINK-31921          
1 59868U 24098L   25150.41528452 -.00001749  00000+0 -34626-4 0  9990
2 59868  43.0059  40.4291 0001764 287.7942  72.2722 15.40692933 58946
STARLINK-31760          
1 59869U 24098M   25151.15941954 -.00002008  00000+0 -63476-4 0  9993
2 59869  43.0037  73.8534 0000957 281.7355  78.3389 15.27568543 57981
STARLINK-31945          
1 59870U 24098N   25149.95100755 -.00074739  00000+0 -17876-2 0  9997
2 59870  43.0026  76.8038 0001739 263.0873  96.9786 15.40897872 58499
STARLINK-31937          
1 59871U 24098P   25150.47638523  .00000931  00000+0  29548-4 0  9998
2 59871  43.0012  73.8614 0001478 280.4680  79.6009 15.40690606 57920
STARLINK-31940          
1 59873U 24098R   25151.18501637 -.00001994  00000+0 -40445-4 0  9995
2 59873  43.0035  69.7227 0001803 270.4705  89.5945 15.40714773 57875
STARLINK-31933          
1 59874U 24098S   25151.46065295  .00000165  00000+0  15527-4 0  9992
2 59874  43.0034  71.8096 0001157 276.9368  83.1352 15.27578676 58037
STARLINK-31936          
1 59875U 24098T   25151.52633642 -.00000560  00000+0 -10821-4 0  9990
2 59875  43.0036  39.1677 0000955 266.0116  94.0626 15.27581811 58410
STARLINK-31935          
1 59876U 24098U   25151.48248898 -.00004184  00000+0 -14259-3 0  9995
2 59876  43.0043  71.9761 0001466 281.5742  78.4945 15.27584214 58041
STARLINK-31934          
1 59877U 24098V   25151.58334491  .00034023  00000+0  12418-2 0  9999
2 59877  43.0008  67.4550 0000955 270.1684 127.6807 15.27538073 58103
STARLINK-31943          
1 59878U 24098W   25150.52819093 -.00000100  00000+0  58692-5 0  9996
2 59878  43.0009  81.1699 0000416 247.4811 112.5997 15.27576332 57846
STARLINK-31926          
1 59879U 24098X   25151.16079676 -.00001671  00000+0 -51222-4 0  9999
2 59879  43.0033  63.0612 0001421 268.2617  91.8072 15.27575930 58757
STARLINK-31919          
1 59880U 24098Y   25150.48756031 -.00000551  00000+0 -10526-4 0  9990
2 59880  42.9959  77.4023 0000547 312.4891  47.5914 15.27572530 58535
STARLINK-31974          
1 59885U 24100A   25151.06816306  .00001016  00000+0  46472-4 0  9990
2 59885  43.0000 281.4910 0001132 263.7783  96.2940 15.27563870 57839
STARLINK-31975          
1 59886U 24100B   25151.39767321 -.00000745  00000+0 -17565-4 0  9990
2 59886  42.9993 279.6616 0000556 265.9279  94.1509 15.27563594 57970
STARLINK-31976          
1 59887U 24100C   25151.36777704  .00011083  00000+0  41228-3 0  9991
2 59887  43.0012 283.7327 0000562 282.9722  77.1067 15.27530464 57924
STARLINK-31965          
1 59888U 24100D   25151.08230607  .00000008  00000+0  98224-5 0  9992
2 59888  43.0021 281.5934 0000913 235.5337 124.5429 15.27569598 57830
STARLINK-31969          
1 59889U 24100E   25151.32762030 -.00013523  00000+0 -48200-3 0  9995
2 59889  42.9968 276.5411 0000533 262.8058  97.2733 15.27634508 58002
STARLINK-31951          
1 59890U 24100F   25150.66042447 -.00001586  00000+0 -48122-4 0  9996
2 59890  42.9994 283.5900 0001409 277.6329  82.4362 15.27573145 57778
STARLINK-31949          
1 59891U 24100G   25150.67008016  .00012377  00000+0  45224-3 0  9999
2 59891  43.0005 283.6603 0000940 290.7507  69.3244 15.28036751 57779
STARLINK-31977          
1 59892U 24100H   25150.65400013 -.00000808  00000+0 -12088-4 0  9992
2 59892  42.9993 277.4877 0001679 227.3005 132.7710 15.40691734 57941
STARLINK-31963          
1 59893U 24100J   25150.68612705 -.00000275  00000+0 -47800-6 0  9999
2 59893  43.0008 283.7804 0000857 239.8144 120.2623 15.27570848 57874
STARLINK-31961          
1 59894U 24100K   25151.35814642  .00003196  00000+0  83787-4 0  9994
2 59894  43.0029 273.3113 0001332 275.6172  84.4533 15.40686198 58035
STARLINK-31964          
1 59895U 24100L   25151.36940180 -.00000636  00000+0 -13587-4 0  9992
2 59895  43.0009 279.4526 0000706 279.0789  80.9982 15.27570358 57926
STARLINK-31905          
1 59896U 24100M   25151.33790257 -.00001765  00000+0 -54623-4 0  9998
2 59896  42.9997 276.6171 0001058 235.1185 124.9567 15.27577317 58000
STARLINK-31928          
1 59897U 24100N   25151.41694490 -.00000585  00000+0 -11757-4 0  9990
2 59897  43.0027 279.8066 0001046 244.3438 115.7305 15.27568230 57871
STARLINK-31953          
1 59898U 24100P   25150.68019093  .00000012  00000+0  99389-5 0  9990
2 59898  42.9991 280.2815 0000754 209.8798 150.2011 15.27567643 57918
STARLINK-31942          
1 59899U 24100Q   25151.05659727  .00001366  00000+0  59220-4 0  9999
2 59899  43.0033 281.3997 0003282 264.2090  95.8387 15.27556466 57922
STARLINK-31676          
1 59900U 24100R   25151.40152594  .00001415  00000+0  60943-4 0  9990
2 59900  43.0040 279.6895 0001202 277.1571  82.9144 15.27571277 57876
STARLINK-31908          
1 59901U 24100S   25151.04073566 -.00000183  00000+0  28800-5 0  9991
2 59901  43.0017 275.2304 0001275 264.8810  95.1901 15.40685921 58007
STARLINK-31914          
1 59902U 24100T   25151.08615514 -.00001089  00000+0 -30062-4 0  9990
2 59902  43.0038 281.6187 0001453 251.5923 108.4770 15.27569815 57826
STARLINK-31850          
1 59903U 24100U   25151.43864309  .00000962  00000+0  44490-4 0  9995
2 59903  43.0016 279.1061 0000968 246.3879 113.6871 15.27562838 57938
STARLINK-31924          
1 59904U 24100V   25151.38739253  .00000993  00000+0  45616-4 0  9994
2 59904  42.9986 279.5837 0001182 276.6578  83.4139 15.27562415 57874
STARLINK-31898          
1 59905U 24100W   25151.06993563  .00000160  00000+0  15329-4 0  9990
2 59905  43.0006 278.0451 0000673 246.4430 113.6351 15.27568630 57969
STARLINK-31861          
1 59906U 24100X   25151.38637460 -.00002176  00000+0 -67779-4 0  9994
2 59906  43.0016 272.6284 0001194 253.6275 106.4445 15.28395702 57953
STARLINK-31920          
1 59907U 24100Y   25151.53128710 -.00001285  00000+0 -37193-4 0  9992
2 59907  43.0006 246.4273 0001072 237.6268 122.4480 15.27577059 58267
STARLINK-31872          
1 59922U 24106A   25151.38212731  .00006537  00000+0  24718-3 0  9996
2 59922  43.0011 127.1880 0000244 328.3378  31.7459 15.27537024 57354
STARLINK-31972          
1 59923U 24106B   25151.29874292 -.00001139  00000+0 -31897-4 0  9995
2 59923  43.0007 127.4149 0000912 267.0501  93.0246 15.27569224 57396
STARLINK-31958          
1 59924U 24106C   25151.32609377 -.00012614  00000+0 -29462-3 0  9994
2 59924  43.0021 118.9786 0001645 262.1412  97.9258 15.40756545 57447
STARLINK-31959          
1 59925U 24106D   25151.20298705 -.00000259  00000+0  11393-6 0  9999
2 59925  43.0016 124.0119 0001316 262.3856  97.6846 15.27571574 57384
STARLINK-31957          
1 59926U 24106E   25151.19738557 -.00001263  00000+0 -36373-4 0  9992
2 59926  43.0052 127.5169 0001680 282.0780  77.9883 15.27581172 57373
STARLINK-31968          
1 59927U 24106F   25151.40124211  .00000016  00000+0  10120-4 0  9998
2 59927  43.0015 126.4640 0001094 257.9838 102.0891 15.27573098 57411
STARLINK-31970          
1 59928U 24106G   25150.83716511  .00001011  00000+0  46260-4 0  9995
2 59928  43.0008 129.9701 0001052 272.1961  87.8770 15.27584170 57318
STARLINK-31932          
1 59929U 24106H   25150.99154223 -.00100847  00000+0 -37068-2 0  9992
2 59929  42.9997 125.8394 0000926 207.5372 152.5431 15.27567247 57325
STARLINK-31956          
1 59930U 24106J   25151.22307328 -.00003807  00000+0 -12892-3 0  9994
2 59930  43.0000 127.7049 0000888 261.5713  98.5038 15.27570874 57320
STARLINK-31960          
1 59931U 24106K   25151.20765797 -.00000794  00000+0 -19333-4 0  9991
2 59931  43.0004 127.5888 0001201 257.6688 102.4029 15.27568014 57329
STARLINK-31432          
1 59932U 24106L   25151.31030364 -.00132467  00000+0 -49016-2 0  9991
2 59932  42.9957 127.5037 0001480 174.8581 185.2286 15.27507253 57324
STARLINK-31853          
1 59933U 24106M   25151.35770427 -.00000384  00000+0 -44376-5 0  9996
2 59933  43.0007 126.9956 0001235 266.9725  93.0985 15.27577727 57333
STARLINK-31971          
1 59934U 24106N   25151.19155787 -.00000427  00000+0 -59854-5 0  9990
2 59934  43.0013 124.7172 0001186 248.7515 111.3210 15.27571606 57196
STARLINK-31962          
1 59936U 24106Q   25150.66029336 -.00000281  00000+0 -69276-6 0  9991
2 59936  43.0024 131.2264 0000927 281.6114  78.4633 15.27575169 57233
STARLINK-31879          
1 59937U 24106R   25150.67056328  .00000532  00000+0  28856-4 0  9998
2 59937  43.0021 131.2952 0001241 267.9002  92.1708 15.27580602 57287
STARLINK-31876          
1 59938U 24106S   25150.63074611  .00004836  00000+0  18516-3 0  9992
2 59938  43.0008 130.9983 0001320 263.8683  96.2018 15.27577175 57247
STARLINK-31955          
1 59939U 24106T   25149.44607269 -.00514493  00000+0 -20804-1 0  9999
2 59939  42.9997 137.5863 0001591 239.8124 120.2570 15.26322161 57092
